{
  "norad_id": 65984,
  "name": "SDA_1674",
  "history": [
    {
      "epoch": "2026-03-28T21:00:53.321760Z",
      "apogee_km": 948.3733466716858,
      "perigee_km": 944.2928843703285,
      "latitude_deg": 8.519933666636398e-06,
      "longitude_deg": 144.54174373534684,
      "height_km": 948.7101923624593,
      "semi_major_axis_km": 7324.470115521007,
      "eccentricity": 0.00027855,
      "inclination_deg": 81.2969,
      "raan_deg": 286.0537,
      "arg_perigee_deg": 76.2543,
      "mean_anomaly_deg": 283.8924,
      "mean_motion_rev_day": 13.84963873
    },
    {
      "epoch": "2026-03-29T00:28:56.904384Z",
      "apogee_km": 948.3727044743409,
      "perigee_km": 944.2871168315787,
      "latitude_deg": 1.3579724622690766e-05,
      "longitude_deg": 92.25030505619351,
      "height_km": 948.6950849083971,
      "semi_major_axis_km": 7324.466910652959,
      "eccentricity": 0.0002789,
      "inclination_deg": 81.2969,
      "raan_deg": 285.9196,
      "arg_perigee_deg": 75.928,
      "mean_anomaly_deg": 284.2187,
      "mean_motion_rev_day": 13.84964782
    },
    {
      "epoch": "2026-03-30T04:14:18.264192Z",
      "apogee_km": 949.9666869485345,
      "perigee_km": 946.00764944804,
      "latitude_deg": 7.689168707645132e-05,
      "longitude_deg": 33.69992052359676,
      "height_km": 949.5519723393164,
      "semi_major_axis_km": 7326.1241681982865,
      "eccentricity": 0.0002702,
      "inclination_deg": 81.2971,
      "raan_deg": 284.8481,
      "arg_perigee_deg": 49.0466,
      "mean_anomaly_deg": 311.0925,
      "mean_motion_rev_day": 13.84494865
    },
    {
      "epoch": "2026-03-30T04:14:18.265056Z",
      "apogee_km": 949.9664671648097,
      "perigee_km": 946.0078692317647,
      "latitude_deg": 7.947034013425846e-05,
      "longitude_deg": 33.699917306406796,
      "height_km": 949.5521164232644,
      "semi_major_axis_km": 7326.1241681982865,
      "eccentricity": 0.00027017,
      "inclination_deg": 81.2971,
      "raan_deg": 284.8481,
      "arg_perigee_deg": 49.0466,
      "mean_anomaly_deg": 311.0925,
      "mean_motion_rev_day": 13.84494865
    },
    {
      "epoch": "2026-03-30T14:38:54.992544Z",
      "apogee_km": 950.5552543132317,
      "perigee_km": 946.5276326392841,
      "latitude_deg": 1.9445701410470447e-05,
      "longitude_deg": -123.28245434028776,
      "height_km": 950.8597014013385,
      "semi_major_axis_km": 7326.678443476258,
      "eccentricity": 0.00027486,
      "inclination_deg": 81.2971,
      "raan_deg": 284.4463,
      "arg_perigee_deg": 74.3619,
      "mean_anomaly_deg": 285.7841,
      "mean_motion_rev_day": 13.84337759
    },
    {
      "epoch": "2026-03-30T21:35:14.935488Z",
      "apogee_km": 950.5801745499266,
      "perigee_km": 946.7221809670464,
      "latitude_deg": 1.5605494621584366e-05,
      "longitude_deg": 132.0816804192506,
      "height_km": 950.925199165356,
      "semi_major_axis_km": 7326.788177758486,
      "eccentricity": 0.00026328,
      "inclination_deg": 81.2972,
      "raan_deg": 284.1785,
      "arg_perigee_deg": 72.2747,
      "mean_anomaly_deg": 287.8697,
      "mean_motion_rev_day": 13.84306659
    },
    {
      "epoch": "2026-03-31T20:00:01.999008Z",
      "apogee_km": 955.5745434118553,
      "perigee_km": 951.2269415305709,
      "latitude_deg": -28.83725958904287,
      "longitude_deg": 149.28960113384252,
      "height_km": 963.7714616697743,
      "semi_major_axis_km": 7331.537742471213,
      "eccentricity": 0.0002965,
      "inclination_deg": 81.2968,
      "raan_deg": 283.3127,
      "arg_perigee_deg": 52.0382,
      "mean_anomaly_deg": 279.0386,
      "mean_motion_rev_day": 13.82961691
    },
    {
      "epoch": "2026-04-01T20:00:01.999008Z",
      "apogee_km": 952.1273885614364,
      "perigee_km": 947.9898893036952,
      "latitude_deg": -81.33528371434713,
      "longitude_deg": 64.26850575905483,
      "height_km": 980.1474114939933,
      "semi_major_axis_km": 7328.195638932565,
      "eccentricity": 0.0002823,
      "inclination_deg": 81.2964,
      "raan_deg": 282.3863,
      "arg_perigee_deg": 64.4087,
      "mean_anomaly_deg": 205.9214,
      "mean_motion_rev_day": 13.83907871
    },
    {
      "epoch": "2026-04-02T20:00:01.999008Z",
      "apogee_km": 952.1363182506939,
      "perigee_km": 947.9826964703207,
      "latitude_deg": -29.628427144944833,
      "longitude_deg": -24.756301112043754,
      "height_km": 962.815244672991,
      "semi_major_axis_km": 7328.196507360507,
      "eccentricity": 0.0002834,
      "inclination_deg": 81.2965,
      "raan_deg": 281.4597,
      "arg_perigee_deg": 62.9831,
      "mean_anomaly_deg": 146.7574,
      "mean_motion_rev_day": 13.83907625
    },
    {
      "epoch": "2026-04-02T22:00:01.999584Z",
      "apogee_km": 952.1745796693885,
      "perigee_km": 947.981961148881,
      "latitude_deg": -79.8686356531361,
      "longitude_deg": -1.4290092761287985,
      "height_km": 980.0635475494547,
      "semi_major_axis_km": 7328.215270409134,
      "eccentricity": 0.00028606,
      "inclination_deg": 81.2966,
      "raan_deg": 281.3824,
      "arg_perigee_deg": 62.5237,
      "mean_anomaly_deg": 202.1667,
      "mean_motion_rev_day": 13.8390231
    },
    {
      "epoch": "2026-04-03T21:01:03.215424Z",
      "apogee_km": 952.0120914670551,
      "perigee_km": 947.997735326895,
      "latitude_deg": -2.3512728134881143e-05,
      "longitude_deg": 133.0272374159923,
      "height_km": 951.9229044677757,
      "semi_major_axis_km": 7328.141913396975,
      "eccentricity": 0.0002739,
      "inclination_deg": 81.2966,
      "raan_deg": 280.4944,
      "arg_perigee_deg": 61.9818,
      "mean_anomaly_deg": 298.1615,
      "mean_motion_rev_day": 13.8392309
    },
    {
      "epoch": "2026-04-04T20:00:01.999008Z",
      "apogee_km": 952.050523934091,
      "perigee_km": 948.063986259318,
      "latitude_deg": 81.22687736869148,
      "longitude_deg": -132.8983705287061,
      "height_km": 961.7502335387231,
      "semi_major_axis_km": 7328.194255096704,
      "eccentricity": 0.000272,
      "inclination_deg": 81.297,
      "raan_deg": 279.6067,
      "arg_perigee_deg": 58.9523,
      "mean_anomaly_deg": 29.607,
      "mean_motion_rev_day": 13.83908263
    },
    {
      "epoch": "2026-04-05T14:39:39.681216Z",
      "apogee_km": 951.9842484710825,
      "perigee_km": 948.0203113717871,
      "latitude_deg": 3.0777124175192413e-05,
      "longitude_deg": -134.94233341380868,
      "height_km": 951.8414336543816,
      "semi_major_axis_km": 7328.1392799214345,
      "eccentricity": 0.00027046,
      "inclination_deg": 81.2967,
      "raan_deg": 278.887,
      "arg_perigee_deg": 58.9633,
      "mean_anomaly_deg": 301.1789,
      "mean_motion_rev_day": 13.83923836
    },
    {
      "epoch": "2026-04-05T18:07:52.759200Z",
      "apogee_km": 951.9778330464405,
      "perigee_km": 948.0294308739394,
      "latitude_deg": 1.4742793588765996e-05,
      "longitude_deg": 172.72675215166808,
      "height_km": 951.8383988547972,
      "semi_major_axis_km": 7328.140631960189,
      "eccentricity": 0.0002694,
      "inclination_deg": 81.2968,
      "raan_deg": 278.7531,
      "arg_perigee_deg": 58.6775,
      "mean_anomaly_deg": 301.4645,
      "mean_motion_rev_day": 13.83923453
    },
    {
      "epoch": "2026-04-05T23:20:12.325632Z",
      "apogee_km": 951.9661654827978,
      "perigee_km": 948.0401876646001,
      "latitude_deg": -1.583977427899103e-05,
      "longitude_deg": 94.23044068201362,
      "height_km": 951.8313819058088,
      "semi_major_axis_km": 7328.140176573698,
      "eccentricity": 0.00026787,
      "inclination_deg": 81.2968,
      "raan_deg": 278.5521,
      "arg_perigee_deg": 58.2516,
      "mean_anomaly_deg": 301.8901,
      "mean_motion_rev_day": 13.83923582
    },
    {
      "epoch": "2026-04-07T20:27:05.731488Z",
      "apogee_km": 951.9608485704066,
      "perigee_km": 948.2381044403428,
      "latitude_deg": 3.059305256896888e-05,
      "longitude_deg": 133.91441788774614,
      "height_km": 951.739639327626,
      "semi_major_axis_km": 7328.236476505374,
      "eccentricity": 0.000254,
      "inclination_deg": 81.2973,
      "raan_deg": 276.8114,
      "arg_perigee_deg": 48.9854,
      "mean_anomaly_deg": 311.1522,
      "mean_motion_rev_day": 13.83896303
    },
    {
      "epoch": "2026-04-08T13:48:12.732768Z",
      "apogee_km": 952.0883077969957,
      "perigee_km": 948.2161863246329,
      "latitude_deg": -1.9893812462742382e-05,
      "longitude_deg": -127.74658306050341,
      "height_km": 951.7863951528942,
      "semi_major_axis_km": 7328.289247060814,
      "eccentricity": 0.00026419,
      "inclination_deg": 81.2977,
      "raan_deg": 276.1422,
      "arg_perigee_deg": 50.6597,
      "mean_anomaly_deg": 309.4793,
      "mean_motion_rev_day": 13.83881355
    },
    {
      "epoch": "2026-04-09T19:18:06.950304Z",
      "apogee_km": 952.105468259896,
      "perigee_km": 948.2141426561966,
      "latitude_deg": 1.6587440913730845e-05,
      "longitude_deg": 147.42675645870895,
      "height_km": 951.7102947442893,
      "semi_major_axis_km": 7328.296805458046,
      "eccentricity": 0.0002655,
      "inclination_deg": 81.2971,
      "raan_deg": 275.0029,
      "arg_perigee_deg": 47.6354,
      "mean_anomaly_deg": 312.5027,
      "mean_motion_rev_day": 13.83879214
    },
    {
      "epoch": "2026-04-10T12:39:14.139072Z",
      "apogee_km": 952.0903968409839,
      "perigee_km": 948.2269193700304,
      "latitude_deg": 5.331068473990858e-05,
      "longitude_deg": -114.23541416642414,
      "height_km": 951.6927384957969,
      "semi_major_axis_km": 7328.295658105507,
      "eccentricity": 0.0002636,
      "inclination_deg": 81.2971,
      "raan_deg": 274.3333,
      "arg_perigee_deg": 46.5883,
      "mean_anomaly_deg": 313.5493,
      "mean_motion_rev_day": 13.83879539
    },
    {
      "epoch": "2026-04-11T18:09:08.366112Z",
      "apogee_km": 952.0475572598161,
      "perigee_km": 948.2690881914195,
      "latitude_deg": -4.4118243564667865e-05,
      "longitude_deg": 160.9386665997343,
      "height_km": 951.6748701942387,
      "semi_major_axis_km": 7328.295322725618,
      "eccentricity": 0.0002578,
      "inclination_deg": 81.2971,
      "raan_deg": 273.1948,
      "arg_perigee_deg": 44.5955,
      "mean_anomaly_deg": 315.5408,
      "mean_motion_rev_day": 13.83879634
    },
    {
      "epoch": "2026-04-13T04:51:22.759200Z",
      "apogee_km": 952.0129137822469,
      "perigee_km": 948.3046495508088,
      "latitude_deg": 2.4084994827511048e-05,
      "longitude_deg": -2.385937541942518,
      "height_km": 951.6471351918087,
      "semi_major_axis_km": 7328.295781666528,
      "eccentricity": 0.00025301,
      "inclination_deg": 81.2971,
      "raan_deg": 271.8554,
      "arg_perigee_deg": 42.195,
      "mean_anomaly_deg": 317.9401,
      "mean_motion_rev_day": 13.83879504
    },
    {
      "epoch": "2026-04-14T20:45:57.207744Z",
      "apogee_km": 951.9395031421318,
      "perigee_km": 948.3735555107614,
      "latitude_deg": -2.1884422041213296e-05,
      "longitude_deg": 115.79139387333488,
      "height_km": 951.6216662763909,
      "semi_major_axis_km": 7328.293529326446,
      "eccentricity": 0.0002433,
      "inclination_deg": 81.2973,
      "raan_deg": 270.3153,
      "arg_perigee_deg": 38.4051,
      "mean_anomaly_deg": 321.7278,
      "mean_motion_rev_day": 13.83880142
    }
  ]
}